STARLINK-5817           
1 55779U 23028AQ  23231.16667824 -.00050310  00000+0 -85867-3 0  9996
2 55779  69.9995  41.8948 0003267 276.8426 343.6903 15.51239077 27095
STARLINK-5819           
1 55780U 23028AR  23230.96022847 -.00000338  00000+0 -20516-4 0  9991
2 55780  69.9978  58.5484 0002352 282.7653  77.3243 14.98324310 26676
STARLINK-5820           
1 55781U 23028AS  23230.61408363 -.00000184  00000+0 -76568-5 0  9993
2 55781  69.9991  59.7764 0002988 269.5220  90.5597 14.98327606 26618
STARLINK-5826           
1 55782U 23028AT  23230.58334491 -.00936178  00000+0 -14434-1 0  9991
2 55782  70.0000  43.5309 0003521 268.9217 303.2197 15.56651162 27008
STARLINK-5825           
1 55783U 23028AU  23230.58334491 -.00936097  00000+0 -14434-1 0  9992
2 55783  70.0000  43.5305 0003542 274.4126 298.2562 15.56648375 27000
STARLINK-5797           
1 55784U 23028AV  23230.58334491 -.00936798  00000+0 -14452-1 0  9991
2 55784  70.0000  43.5281 0003494 270.8067 303.9726 15.56637588 27004
STARLINK-5818           
1 55785U 23028AW  23230.58334491 -.00936118  00000+0 -14436-1 0  9990
2 55785  70.0000  43.5297 0003521 270.9122 302.2843 15.56645554 26997
STARLINK-5823           
1 55786U 23028AX  23230.58334491 -.00936713  00000+0 -14452-1 0  9990
2 55786  70.0000  43.5274 0003507 272.7006 302.6061 15.56634760 26991
STARLINK-5811           
1 55787U 23028AY  23230.58334491 -.00936737  00000+0 -14448-1 0  9992
2 55787  70.0000  43.5292 0003497 272.8002 300.9241 15.56643050 26990
STARLINK-5804           
1 55788U 23028AZ  23230.58334491 -.00936179  00000+0 -14440-1 0  9995
2 55788  69.9999  43.5285 0003525 270.1798 304.0717 15.56640022 26991
STARLINK-5815           
1 55789U 23028BA  23230.58334491 -.00935837  00000+0 -14442-1 0  9998
2 55789  70.0000  43.5255 0003509 269.1283 307.7611 15.56625722 26997
STARLINK-5813           
1 55790U 23028BB  23230.58334491 -.00935946  00000+0 -14442-1 0  9991
2 55790  70.0003  43.5264 0003538 268.9158 307.4455 15.56628849 26998
STARLINK-5807           
1 55791U 23028BC  23230.58334491 -.00935433  00000+0 -14432-1 0  9992
2 55791  70.0000  43.5269 0003537 269.9441 305.8899 15.56631223 26990
ONEWEB-0530             
1 55796U 23029A   23230.91667824 -.00826989  00000+0 -13206+0 0  9995
2 55796  86.6265 127.5567 0001308  79.1592 114.7009 14.74738307 24872
ONEWEB-0534             
1 55797U 23029B   23230.25002315 -.00787552  00000+0 -12451+0 0  9994
2 55797  86.6222 127.7581 0001653  89.1176 112.1091 14.75035630 24756
ONEWEB-0556             
1 55798U 23029C   23231.25001157 -.00804880  00000+0 -12892+0 0  9992
2 55798  86.6252 127.3786 0002042 115.5187 116.0504 14.74531629 24909
ONEWEB-0562             
1 55799U 23029D   23231.25001157 -.00791082  00000+0 -12719+0 0  9990
2 55799  86.6256 127.3370 0001583 120.0313 327.5671 14.74325559 24899
ONEWEB-0563             
1 55800U 23029E   23230.91667824 -.00830639  00000+0 -13683+0 0  9997
2 55800  86.6355 127.5862 0000977  81.0918  28.7378 14.73414890 24848
ONEWEB-0564             
1 55801U 23029F   23231.25001157 -.00790548  00000+0 -12922+0 0  9996
2 55801  86.6307 127.3416 0002200 126.6420  35.3981 14.73610288 24926
ONEWEB-0638             
1 55802U 23029G   23231.25001157  .00000015  00000+0  00000+0 0  9992
2 55802  87.6346 135.6556 0003952 325.9863 140.8110 13.52226600 24347
ONEWEB-0639             
1 55803U 23029H   23231.02708084  .00000455  00000+0  11042-2 0  9990
2 55803  87.9288 150.5554 0002867 116.2835 243.8592 13.19724154 23329
ONEWEB-0640             
1 55804U 23029J   23230.91667824 -.00621847  00000+0 -98793+0 0  9995
2 55804  87.5571 135.8560 0003143  21.2942 165.3453 13.52235696 24292
ONEWEB-0641             
1 55805U 23029K   23231.02285133  .00000035  00000+0  55138-4 0  9997
2 55805  87.9203 150.6136 0002295  86.0982 274.0413 13.19727953 23336
ONEWEB-0642             
1 55806U 23029L   23230.33626286  .00000164  00000+0  37659-3 0  9999
2 55806  87.9288 150.6939 0002628 107.9020 252.2399 13.19731972 23233
ONEWEB-0643             
1 55807U 23029M   23231.25001157  .00000015  00000+0  00000+0 0  9997
2 55807  87.6133 135.6892 0000506  81.9711 110.0857 13.53811101 24346
ONEWEB-0644             
1 55808U 23029N   23231.01445513 -.00000712  00000+0 -18100-2 0  9999
2 55808  87.9291 150.6034 0002237  92.6973 267.4416 13.19726243 23321
ONEWEB-0645             
1 55809U 23029P   23231.01023376  .00000057  00000+0  10908-3 0  9998
2 55809  87.9222 150.5649 0001896  99.5735 260.5612 13.19730873 23325
ONEWEB-0646             
1 55810U 23029Q   23230.28156662  .00000115  00000+0  25542-3 0  9998
2 55810  87.9201 150.7274 0002283  85.2156 274.9238 13.19731093 23216
ONEWEB-0648             
1 55811U 23029R   23231.25001157  .00000015  00000+0  00000+0 0  9992
2 55811  87.6258 135.6214 0003194  90.3082 316.9393 13.52950647 24348
ONEWEB-0649             
1 55812U 23029S   23230.31944957  .00000019  00000+0  15862-4 0  9994
2 55812  87.9209 150.7326 0002035  99.8879 260.2484 13.19725336 23250
ONEWEB-0650             
1 55813U 23029T   23231.07339740  .00000088  00000+0  18789-3 0  9993
2 55813  87.9239 150.5510 0002317  86.7268 273.4129 13.19729803 23320
ONEWEB-0652             
1 55814U 23029U   23231.25001157 -.00622608  00000+0 -98759+0 0  9993
2 55814  87.6078 135.6677 0001051 124.0067  10.6532 13.52340288 24293
ONEWEB-0653             
1 55815U 23029V   23231.25001157  .00000015  00000+0  00000+0 0  9996
2 55815  87.6073 135.6010 0001741 139.7313 265.7410 13.54226192 24324
ONEWEB-0654             
1 55816U 23029W   23231.25001157  .00000015  00000+0  00000+0 0  9997
2 55816  87.6356 135.6289 0002516 288.0689 310.6728 13.54651389 24346
ONEWEB-0656             
1 55817U 23029X   23231.25001157 -.00733045  00000+0 -13959+0 0  9993
2 55817  86.7032 127.4412 0002316  91.8276 333.1426 14.66735676 24908
ONEWEB-0657             
1 55818U 23029Y   23230.08359445  .00000104  00000+0  22815-3 0  9996
2 55818  87.9190 150.7638 0003009  69.2846 290.8609 13.19724882 23194
ONEWEB-0658             
1 55819U 23029Z   23230.07937217  .00000058  00000+0  11215-3 0  9995
2 55819  87.9210 150.6986 0002352  99.7514 260.3885 13.19729185 23204
ONEWEB-0660             
1 55820U 23029AA  23231.25001157  .00000015  00000+0  00000+0 0  9992
2 55820  87.6131 135.6327 0003552 139.7086  39.2887 13.54624498 24340
ONEWEB-0661             
1 55821U 23029AB  23231.25001157  .00000015  00000+0  00000+0 0  9993
2 55821  87.6256 135.6643 0000778 193.4184   7.6201 13.52339148 24312
ONEWEB-0662             
1 55822U 23029AC  23231.25001157  .00000015  00000+0  00000+0 0  9994
2 55822  87.6315 135.7008 0001325 183.7536 232.4450 13.56554435 24379
ONEWEB-0663             
1 55823U 23029AD  23231.25001157 -.00756215  00000+0 -14315+0 0  9991
2 55823  86.6979 127.4638 0001194  96.8929 334.9588 14.67083742 24906
ONEWEB-0664             
1 55824U 23029AE  23231.25001157 -.00750930  00000+0 -14285+0 0  9996
2 55824  86.7022 127.4343 0001322  80.5611 255.7048 14.66847107 24904
ONEWEB-0665             
1 55825U 23029AF  23231.25001157  .00000015  00000+0  00000+0 0  9997
2 55825  87.6350 135.6357 0002634 109.0521 296.6848 13.53495979 24339
ONEWEB-0666             
1 55826U 23029AG  23230.91667824 -.00759779  00000+0 -14157+0 0  9997
2 55826  86.6992 127.6208 0002707  95.1124 344.4666 14.67788224 24853
ONEWEB-0667             
1 55827U 23029AH  23231.25001157 -.00764700  00000+0 -14977+0 0  9997
2 55827  86.7119 127.4829 0001615  71.3293 296.6170 14.65598791 24903
ONEWEB-0669             
1 55828U 23029AJ  23230.25002315 -.00749816  00000+0 -13823+0 0  9994
2 55828  86.6936 127.8411 0002127 111.8072  63.5312 14.68227817 24758
ONEWEB-0670             
1 55829U 23029AK  23231.25001157  .00000015  00000+0  00000+0 0  9991
2 55829  87.6364 135.6649 0001269  43.7075 178.5711 13.56767735 24357
ONEWEB-0671             
1 55830U 23029AL  23230.75752243  .00001457  00000+0  36065-2 0  9990
2 55830  87.9293 150.6103 0001919  75.2209 284.9136 13.19714161 23284
ONEWEB-0672             
1 55831U 23029AM  23231.25001157 -.00730262  00000+0 -14041+0 0  9990
2 55831  86.7111 127.4426 0001501 100.4226 266.0794 14.66300540 24904
ONEWEB-0673             
1 55832U 23029AN  23230.04986466  .00000089  00000+0  19061-3 0  9998
2 55832  87.9193 150.8304 0001956  84.3092 275.8264 13.19729221 23219
ONEWEB-0674             
1 55833U 23029AP  23231.25001157  .00000015  00000+0  00000+0 0  9996
2 55833  87.6347 135.6459 0001558 263.2078  97.1976 13.52612311 24337
ONEWEB-0675             
1 55834U 23029AQ  23230.52161582  .00000024  00000+0  28290-4 0  9991
2 55834  87.9210 150.7059 0002581  76.6750 283.4670 13.19725540 23291
ONEWEB-0720             
1 55835U 23029AR  23230.74065804  .00000198  00000+0  46305-3 0  9994
2 55835  87.9202 150.6725 0002010  96.8876 263.2486 13.19724967 23228
2023-030A               
1 55836U 23030A   23231.08288899  .00000280  00000+0  21510-3 0  9999
2 55836  99.0068 237.1283 0001136  86.7529 273.3766 14.01358332 22711
2023-030B               
1 55837U 23030B   23231.06418196  .00000137  00000+0  11449-3 0  9994
2 55837  98.9971 237.7517 0003340 159.8209 200.3090 14.03929760 22749
LUCH-5X (OLYMP-K 2)     
1 55841U 23031A   23230.35940216  .00000064  00000+0  00000+0 0  9990
2 55841   0.0111 138.1766 0000951  86.3434 240.1974  1.00292533  1589
HORUS 2                 
1 55844U 23032A   23231.08783310  .00009180  00000+0  38699-3 0  9992
2 55844  97.4635 304.0627 0006080  80.6999 279.4925 15.23530276 24209
SHIYAN 19 (SY-19)       
1 55861U 23034A   23231.06896325  .00006548  00000+0  28657-3 0  9990
2 55861  97.4644  58.0807 0015535  91.3043 268.9973 15.22280342 23804
2023-035A               
1 55908U 23035A   23230.40590274  .00004636  00000+0  47942-3 0  9998
2 55908  44.1795 225.0218 0003704 342.0897  17.9829 14.91196660 23044
